{"type": "FeatureCollection", "features": [ {"type": "Feature", "properties": {"norad_id": 40792, "name": "COSMOS 2251 DEB", "group": "cosmos-2251-debris", "lat": -42.86633197772146, "lon": 36.729731639941846, "alt_km": 685.4750349568812, "timestamp": "2025-12-10T07:43:55.177593+00:00", "meta": {"OBJECT_NAME": "COSMOS 2251 DEB", "OBJECT_ID": "1993-036BVV", "EPOCH": "2025-12-08T11:49:11.388288", "MEAN_MOTION": 14.67495133, "ECCENTRICITY": 0.00157828, "INCLINATION": 74.0463, "RA_OF_ASC_NODE": 55.6567, "ARG_OF_PERICENTER": 162.447, "MEAN_ANOMALY": 210.2984, "EPHEMERIS_TYPE": 0, "CLASSIFICATION_TYPE": "U", "NORAD_CAT_ID": 40792, "ELEMENT_SET_NO": 999, "REV_AT_EPOCH": 63122, "BSTAR": 0.0015277322, "MEAN_MOTION_DOT": 8.654e-05, "MEAN_MOTION_DDOT": 0}, "tle": {"line1": "1 40792U 93036BVV 25342.49249292  .00008654  00000+0  15277-2 0  9996", "line2": "2 40792  74.0463  55.6567 0015782 162.4470 210.2984 14.67495133631222"}}, "geometry": {"type": "Point", "coordinates": [36.729731639941846, -42.86633197772146]}}, {"type": "Feature", "properties": {"norad_id": 40793, "name": "COSMOS 2251 DEB", "group": "cosmos-2251-debris", "lat": 73.94544949159844, "lon": -97.39719186856564, "alt_km": 953.4736152095329, "timestamp": "2025-12-10T07:43:55.177603+00:00", "meta": {"OBJECT_NAME": "COSMOS 2251 DEB", "OBJECT_ID": "1993-036BVW", "EPOCH": "2025-11-17T22:59:08.433600", "MEAN_MOTION": 14.0559149, "ECCENTRICITY": 0.02150611, "INCLINATION": 73.9793, "RA_OF_ASC_NODE": 208.5839, "ARG_OF_PERICENTER": 10.058, "MEAN_ANOMALY": 350.4754, "EPHEMERIS_TYPE": 0, "CLASSIFICATION_TYPE": "U", "NORAD_CAT_ID": 40793, "ELEMENT_SET_NO": 999, "REV_AT_EPOCH": 67897, "BSTAR": 0.0015211732, "MEAN_MOTION_DOT": 3.024e-05, "MEAN_MOTION_DDOT": 0}, "tle": {"line1": "1 40793U 93036BVW 25321.95773650  .00003024  00000+0  15212-2 0  9990", "line2": "2 40793  73.9793 208.5839 0215061  10.0580 350.4754 14.05591490678970"}}, "geometry": {"type": "Point", "coordinates": [-97.39719186856564, 73.94544949159844]}}, {"type": "Feature", "properties": {"norad_id": 40794, "name": "COSMOS 2251 DEB", "group": "cosmos-2251-debris", "lat": 50.86234097163158, "lon": -71.55375911337636, "alt_km": 589.0555169464305, "timestamp": "2025-12-10T07:43:55.177613+00:00", "meta": {"OBJECT_NAME": "COSMOS 2251 DEB", "OBJECT_ID": "1993-036BVX", "EPOCH": "2025-11-30T04:39:36.279360", "MEAN_MOTION": 14.91253423, "ECCENTRICITY": 0.00103638, "INCLINATION": 73.9758, "RA_OF_ASC_NODE": 149.5129, "ARG_OF_PERICENTER": 264.0956, "MEAN_ANOMALY": 215.1976, "EPHEMERIS_TYPE": 0, "CLASSIFICATION_TYPE": "U", "NORAD_CAT_ID": 40794, "ELEMENT_SET_NO": 999, "REV_AT_EPOCH": 61737, "BSTAR": 0.0047311798, "MEAN_MOTION_DOT": 0.00047418, "MEAN_MOTION_DDOT": 0}, "tle": {"line1": "1 40794U 93036BVX 25334.19416990  .00047418  00000+0  47312-2 0  9993", "line2": "2 40794  73.9758 149.5129 0010363 264.0956 215.1976 14.91253423617370"}}, "geometry": {"type": "Point", "coordinates": [-71.55375911337636, 50.86234097163158]}}, {"type": "Feature", "properties": {"norad_id": 40796, "name": "COSMOS 2251 DEB", "group": "cosmos-2251-debris", "lat": -74.00135792709274, "lon": 57.339762564323166, "alt_km": 592.9055517186025, "timestamp": "2025-12-10T07:43:55.177623+00:00", "meta": {"OBJECT_NAME": "COSMOS 2251 DEB", "OBJECT_ID": "1993-036BVZ", "EPOCH": "2025-12-09T17:37:53.182848", "MEAN_MOTION": 14.81629743, "ECCENTRICITY": 0.0056162, "INCLINATION": 74.0119, "RA_OF_ASC_NODE": 148.1325, "ARG_OF_PERICENTER": 285.276, "MEAN_ANOMALY": 92.5072, "EPHEMERIS_TYPE": 0, "CLASSIFICATION_TYPE": "U", "NORAD_CAT_ID": 40796, "ELEMENT_SET_NO": 999, "REV_AT_EPOCH": 76114, "BSTAR": 0.0013806, "MEAN_MOTION_DOT": 0.00011141, "MEAN_MOTION_DDOT": 0}, "tle": {"line1": "1 40796U 93036BVZ 25343.73464332  .00011141  00000+0  13806-2 0  9993", "line2": "2 40796  74.0119 148.1325 0056162 285.2760  92.5072 14.81629743761143"}}, "geometry": {"type": "Point", "coordinates": [57.339762564323166, -74.00135792709274]}}, {"type": "Feature", "properties": {"norad_id": 40797, "name": "COSMOS 2251 DEB", "group": "cosmos-2251-debris", "lat": 69.98723671907722, "lon": 152.72377980134144, "alt_km": 505.13942850299554, "timestamp": "2025-12-10T07:43:55.177634+00:00", "meta": {"OBJECT_NAME": "COSMOS 2251 DEB", "OBJECT_ID": "1993-036BWA", "EPOCH": "2025-11-19T18:43:16.602528", "MEAN_MOTION": 15.10509474, "ECCENTRICITY": 0.00703947, "INCLINATION": 73.92, "RA_OF_ASC_NODE": 143.0892, "ARG_OF_PERICENTER": 60.6639, "MEAN_ANOMALY": 300.156, "EPHEMERIS_TYPE": 0, "CLASSIFICATION_TYPE": "U", "NORAD_CAT_ID": 40797, "ELEMENT_SET_NO": 999, "REV_AT_EPOCH": 64297, "BSTAR": 0.00072810385, "MEAN_MOTION_DOT": 0.00012707, "MEAN_MOTION_DDOT": 0}, "tle": {"line1": "1 40797U 93036BWA 25323.78005327  .00012707  00000+0  72810-3 0  9992", "line2": "2 40797  73.9200 143.0892 0070394  60.6639 300.1560 15.10509474642979"}}, "geometry": {"type": "Point", "coordinates": [152.72377980134144, 69.98723671907722]}}, {"type": "Feature", "properties": {"norad_id": 40799, "name": "COSMOS 2251 DEB", "group": "cosmos-2251-debris", "lat": -33.19900793539373, "lon": -65.83755357310898, "alt_km": 637.0180233614255, "timestamp": "2025-12-10T07:43:55.177643+00:00", "meta": {"OBJECT_NAME": "COSMOS 2251 DEB", "OBJECT_ID": "1993-036BWC", "EPOCH": "2025-12-09T01:53:34.430208", "MEAN_MOTION": 14.96607637, "ECCENTRICITY": 0.01188532, "INCLINATION": 73.9255, "RA_OF_ASC_NODE": 105.8165, "ARG_OF_PERICENTER": 348.6174, "MEAN_ANOMALY": 11.2323, "EPHEMERIS_TYPE": 0, "CLASSIFICATION_TYPE": "U", "NORAD_CAT_ID": 40799, "ELEMENT_SET_NO": 999, "REV_AT_EPOCH": 49922, "BSTAR": 0.00041300806, "MEAN_MOTION_DOT": 5.391e-05, "MEAN_MOTION_DDOT": 0}, "tle": {"line1": "1 40799U 93036BWC 25343.07887072  .00005391  00000+0  41301-3 0  9995", "line2": "2 40799  73.9255 105.8165 0118853 348.6174  11.2323 14.96607637499224"}}, "geometry": {"type": "Point", "coordinates": [-65.83755357310898, -33.19900793539373]}}, {"type": "Feature", "properties": {"norad_id": 40802, "name": "COSMOS 2251 DEB", "group": "cosmos-2251-debris", "lat": 63.22702619545068, "lon": -167.68829684314557, "alt_km": 674.3336961861023, "timestamp": "2025-12-10T07:43:55.177653+00:00", "meta": {"OBJECT_NAME": "COSMOS 2251 DEB", "OBJECT_ID": "1993-036BWF", "EPOCH": "2025-12-09T18:25:18.853248", "MEAN_MOTION": 14.77560234, "ECCENTRICITY": 0.0063224, "INCLINATION": 74.04, "RA_OF_ASC_NODE": 158.8434, "ARG_OF_PERICENTER": 258.1676, "MEAN_ANOMALY": 101.2403, "EPHEMERIS_TYPE": 0, "CLASSIFICATION_TYPE": "U", "NORAD_CAT_ID": 40802, "ELEMENT_SET_NO": 999, "REV_AT_EPOCH": 64365, "BSTAR": 0.0011313, "MEAN_MOTION_DOT": 8.327e-05, "MEAN_MOTION_DDOT": 0}, "tle": {"line1": "1 40802U 93036BWF 25343.76757932  .00008327  00000+0  11313-2 0  9998", "line2": "2 40802  74.0400 158.8434 0063224 258.1676 101.2403 14.77560234643650"}}, "geometry": {"type": "Point", "coordinates": [-167.68829684314557, 63.22702619545068]}}, {"type": "Feature", "properties": {"norad_id": 40803, "name": "COSMOS 2251 DEB", "group": "cosmos-2251-debris", "lat": 43.64302801218991, "lon": -139.4103826151301, "alt_km": 734.9608598744462, "timestamp": "2025-12-10T07:43:55.177663+00:00", "meta": {"OBJECT_NAME": "COSMOS 2251 DEB", "OBJECT_ID": "1993-036BWG", "EPOCH": "2025-12-05T22:55:29.451072", "MEAN_MOTION": 14.51792027, "ECCENTRICITY": 0.00362816, "INCLINATION": 74.0122, "RA_OF_ASC_NODE": 64.6912, "ARG_OF_PERICENTER": 281.8159, "MEAN_ANOMALY": 77.8934, "EPHEMERIS_TYPE": 0, "CLASSIFICATION_TYPE": "U", "NORAD_CAT_ID": 40803, "ELEMENT_SET_NO": 999, "REV_AT_EPOCH": 58654, "BSTAR": 0.00062935795, "MEAN_MOTION_DOT": 2.525e-05, "MEAN_MOTION_DDOT": 0}, "tle": {"line1": "1 40803U 93036BWG 25339.95520198  .00002525  00000+0  62936-3 0  9999", "line2": "2 40803  74.0122  64.6912 0036281 281.8159  77.8934 14.51792027586549"}}, "geometry": {"type": "Point", "coordinates": [-139.4103826151301, 43.64302801218991]}}, {"type": "Feature", "properties": {"norad_id": 40808, "name": "COSMOS 2251 DEB", "group": "cosmos-2251-debris", "lat": -73.68007757184141, "lon": 72.36740590881912, "alt_km": 675.9118099760526, "timestamp": "2025-12-10T07:43:55.177673+00:00", "meta": {"OBJECT_NAME": "COSMOS 2251 DEB", "OBJECT_ID": "1993-036BWM", "EPOCH": "2025-12-09T10:59:32.646336", "MEAN_MOTION": 14.67380628, "ECCENTRICITY": 0.00096177, "INCLINATION": 74.0414, "RA_OF_ASC_NODE": 151.8055, "ARG_OF_PERICENTER": 188.7618, "MEAN_ANOMALY": 201.472, "EPHEMERIS_TYPE": 0, "CLASSIFICATION_TYPE": "U", "NORAD_CAT_ID": 40808, "ELEMENT_SET_NO": 999, "REV_AT_EPOCH": 63571, "BSTAR": 0.0023148185, "MEAN_MOTION_DOT": 0.00013088, "MEAN_MOTION_DDOT": 0}, "tle": {"line1": "1 40808U 93036BWM 25343.45801674  .00013088  00000+0  23148-2 0  9992", "line2": "2 40808  74.0414 151.8055 0009617 188.7618 201.4720 14.67380628635712"}}, "geometry": {"type": "Point", "coordinates": [72.36740590881912, -73.68007757184141]}}, {"type": "Feature", "properties": {"norad_id": 40810, "name": "COSMOS 2251 DEB", "group": "cosmos-2251-debris", "lat": -73.71438516800698, "lon": -22.196237604805226, "alt_km": 693.6748014510604, "timestamp": "2025-12-10T07:43:55.177683+00:00", "meta": {"OBJECT_NAME": "COSMOS 2251 DEB", "OBJECT_ID": "1993-036BWP", "EPOCH": "2025-12-08T16:39:16.874784", "MEAN_MOTION": 14.58674217, "ECCENTRICITY": 0.00186464, "INCLINATION": 74.0365, "RA_OF_ASC_NODE": 82.4401, "ARG_OF_PERICENTER": 234.2275, "MEAN_ANOMALY": 125.7157, "EPHEMERIS_TYPE": 0, "CLASSIFICATION_TYPE": "U", "NORAD_CAT_ID": 40810, "ELEMENT_SET_NO": 999, "REV_AT_EPOCH": 61624, "BSTAR": 0.0013703494, "MEAN_MOTION_DOT": 6.381e-05, "MEAN_MOTION_DDOT": 0}, "tle": {"line1": "1 40810U 93036BWP 25342.69394531  .00006381  00000+0  13703-2 0  9993", "line2": "2 40810  74.0365  82.4401 0018646 234.2275 125.7157 14.58674217616241"}}, "geometry": {"type": "Point", "coordinates": [-22.196237604805226, -73.71438516800698]}}]}